CTC1_L_00245016-03
1 10062U 26912YZ  26075.70032407  .00000000  00000+0  00000-0 0  9991
2 10062  45.0000 180.0000 0000000   0.0000   0.0000 15.48880433    14
CTC1_L_00245016-04
1 10063U 24089MX  26075.70032407  .00000000  00000+0  00000-0 0  9995
2 10063  45.0000 180.0000 0000000   0.0000  90.0000 15.48880433    14
CTC1_L_00245017-01
1 10064U 25054MY  26075.70032407  .00000000  00000+0  00000-0 0  9999
2 10064  45.0000 192.0000 0000000   0.0000 192.0000 15.48880433    11
CTC1_L_00245017-02
1 10065U 22573A   26075.70032407  .00000000  00000+0  00000-0 0  9993
2 10065  45.0000 192.0000 0000000   0.0000 282.0000 15.48880433    12
CTC1_L_00245017-03
1 10066U 26048XQ  26075.70032407  .00000000  00000+0  00000-0 0  9995
2 10066  45.0000 192.0000 0000000   0.0000  12.0000 15.48880433    14
CTC1_L_00245017-04
1 10067U 25384JA  26075.70032407  .00000000  00000+0  00000-0 0  9998
2 10067  45.0000 192.0000 0000000   0.0000 102.0000 15.48880433    15
CTC1_L_00245018-01
1 10068U 23638AF  26075.70032407  .00000000  00000+0  00000-0 0  9999
2 10068  45.0000 204.0000 0000000   0.0000 204.0000 15.48880433    13
CTC1_L_00245018-02
1 10069U 22793IO  26075.70032407  .00000000  00000+0  00000-0 0  9991
2 10069  45.0000 204.0000 0000000   0.0000 294.0000 15.48880433    13
CTC1_L_00245018-03
1 10070U 25930GB  26075.70032407  .00000000  00000+0  00000-0 0  9999
2 10070  45.0000 204.0000 0000000   0.0000  24.0000 15.48880433    16
CTC1_L_00245018-04
1 10071U 24861QW  26075.70032407  .00000000  00000+0  00000-0 0  9992
2 10071  45.0000 204.0000 0000000   0.0000 114.0000 15.48880433    17
CTC1_L_00245019-01
1 10072U 22014ZM  26075.70032407  .00000000  00000+0  00000-0 0  9991
2 10072  45.0000 216.0000 0000000   0.0000 216.0000 15.48880433    14
CTC1_L_00245019-02
1 10073U 23100WS  26075.70032407  .00000000  00000+0  00000-0 0  9999
2 10073  45.0000 216.0000 0000000   0.0000 306.0000 15.48880433    15
CTC1_L_00245019-03
1 10074U 26258OB  26075.70032407  .00000000  00000+0  00000-0 0  9997
2 10074  45.0000 216.0000 0000000   0.0000  36.0000 15.48880433    16
CTC1_L_00245019-04
1 10075U 22777US  26075.70032407  .00000000  00000+0  00000-0 0  9990
2 10075  45.0000 216.0000 0000000   0.0000 126.0000 15.48880433    17
CTC1_L_00245020-01
1 10076U 22031BX  26075.70032407  .00000000  00000+0  00000-0 0  9994
2 10076  45.0000 228.0000 0000000   0.0000 228.0000 15.48880433    14
CTC1_L_00245020-02
1 10077U 23546RL  26075.70032407  .00000000  00000+0  00000-0 0  9997
2 10077  45.0000 228.0000 0000000   0.0000 318.0000 15.48880433    15
CTC1_L_00245020-03
1 10078U 23173HV  26075.70032407  .00000000  00000+0  00000-0 0  9994
2 10078  45.0000 228.0000 0000000   0.0000  48.0000 15.48880433    16
CTC1_L_00245020-04
1 10079U 23534US  26075.70032407  .00000000  00000+0  00000-0 0  9996
2 10079  45.0000 228.0000 0000000   0.0000 138.0000 15.48880433    17
CTC1_L_00245021-01
1 10080U 26093IN  26075.70032407  .00000000  00000+0  00000-0 0  9991
2 10080  45.0000 240.0000 0000000   0.0000 240.0000 15.48880433    17
CTC1_L_00245021-02
1 10081U 22767BV  26075.70032407  .00000000  00000+0  00000-0 0  9996
2 10081  45.0000 240.0000 0000000   0.0000 330.0000 15.48880433    18
CTC1_L_00245021-03
1 10082U 24997VC  26075.70032407  .00000000  00000+0  00000-0 0  9994
2 10082  45.0000 240.0000 0000000   0.0000  60.0000 15.48880433    19
CTC1_L_00245021-04
1 10083U 26668ZF  26075.70032407  .00000000  00000+0  00000-0 0  9992
2 10083  45.0000 240.0000 0000000   0.0000 150.0000 15.48880433    10
CTC1_L_00245022-01
1 10084U 26056NQ  26075.70032407  .00000000  00000+0  00000-0 0  9994
2 10084  45.0000 252.0000 0000000   0.0000 252.0000 15.48880433    17
CTC1_L_00245022-02
1 10085U 24742CZ  26075.70032407  .00000000  00000+0  00000-0 0  9995
2 10085  45.0000 252.0000 0000000   0.0000 342.0000 15.48880433    18
CTC1_L_00245022-03
1 10086U 24928VY  26075.70032407  .00000000  00000+0  00000-0 0  9992
2 10086  45.0000 252.0000 0000000   0.0000  72.0000 15.48880433    19
CTC1_L_00245022-04
1 10087U 25402NQ  26075.70032407  .00000000  00000+0  00000-0 0  9991
2 10087  45.0000 252.0000 0000000   0.0000 162.0000 15.48880433    10
CTC1_L_00245023-01
1 10088U 24801HO  26075.70032407  .00000000  00000+0  00000-0 0  9994
2 10088  45.0000 264.0000 0000000   0.0000 264.0000 15.48880433    17
CTC1_L_00245023-02
1 10089U 22427OR  26075.70032407  .00000000  00000+0  00000-0 0  9997
2 10089  45.0000 264.0000 0000000   0.0000 354.0000 15.48880433    18
CTC1_L_00245023-03
1 10090U 22844PV  26075.70032407  .00000000  00000+0  00000-0 0  9992
2 10090  45.0000 264.0000 0000000   0.0000  84.0000 15.48880433    10
CTC1_L_00245023-04
1 10091U 26629GO  26075.70032407  .00000000  00000+0  00000-0 0  9998
2 10091  45.0000 264.0000 0000000   0.0000 174.0000 15.48880433    11
CTC1_L_00245024-01
1 10092U 25751AK  26075.70032407  .00000000  00000+0  00000-0 0  9994
2 10092  45.0000 276.0000 0000000   0.0000 276.0000 15.48880433    18
CTC1_L_00245024-02
1 10093U 26326OO  26075.70032407  .00000000  00000+0  00000-0 0  9994
2 10093  45.0000 276.0000 0000000   0.0000   6.0000 15.48880433    10
CTC1_L_00245024-03
1 10094U 24585OA  26075.70032407  .00000000  00000+0  00000-0 0  9990
2 10094  45.0000 276.0000 0000000   0.0000  96.0000 15.48880433    10
CTC1_L_00245024-04
1 10095U 24488UX  26075.70032407  .00000000  00000+0  00000-0 0  9993
2 10095  45.0000 276.0000 0000000   0.0000 186.0000 15.48880433    11
CTC1_L_00245025-01
1 10096U 23943YU  26075.70032407  .00000000  00000+0  00000-0 0  9999
2 10096  45.0000 288.0000 0000000   0.0000 288.0000 15.48880433    18
CTC1_L_00245025-02
1 10097U 24857DM  26075.70032407  .00000000  00000+0  00000-0 0  9995
2 10097  45.0000 288.0000 0000000   0.0000  18.0000 15.48880433    10
CTC1_L_00245025-03
1 10098U 23313BK  26075.70032407  .00000000  00000+0  00000-0 0  9992
2 10098  45.0000 288.0000 0000000   0.0000 108.0000 15.48880433    11
CTC1_L_00245025-04
1 10099U 25767VW  26075.70032407  .00000000  00000+0  00000-0 0  9998
2 10099  45.0000 288.0000 0000000   0.0000 198.0000 15.48880433    11
CTC1_L_00245026-01
1 10100U 25694ZA  26075.70032407  .00000000  00000+0  00000-0 0  9990
2 10100  45.0000 300.0000 0000000   0.0000 300.0000 15.48880433    14
CTC1_L_00245026-02
1 10101U 23426JT  26075.70032407  .00000000  00000+0  00000-0 0  9992
2 10101  45.0000 300.0000 0000000   0.0000  30.0000 15.48880433    15
CTC1_L_00245026-03
1 10102U 24019NP  26075.70032407  .00000000  00000+0  00000-0 0  9992
2 10102  45.0000 300.0000 0000000   0.0000 120.0000 15.48880433    16
CTC1_L_00245026-04
1 10103U 25487UD  26075.70032407  .00000000  00000+0  00000-0 0  9993
2 10103  45.0000 300.0000 0000000   0.0000 210.0000 15.48880433    17
CTC1_L_00245027-01
1 10104U 25718KI  26075.70032407  .00000000  00000+0  00000-0 0  9991
2 10104  45.0000 312.0000 0000000   0.0000 312.0000 15.48880433    14
CTC1_L_00245027-02
1 10105U 22609PW  26075.70032407  .00000000  00000+0  00000-0 0  9998
2 10105  45.0000 312.0000 0000000   0.0000  42.0000 15.48880433    15
CTC1_L_00245027-03
1 10106U 24310G   26075.70032407  .00000000  00000+0  00000-0 0  9990
2 10106  45.0000 312.0000 0000000   0.0000 132.0000 15.48880433    16
CTC1_L_00245027-04
1 10107U 24446PX  26075.70032407  .00000000  00000+0  00000-0 0  9991
2 10107  45.0000 312.0000 0000000   0.0000 222.0000 15.48880433    17
CTC1_L_00245028-01
1 10108U 25563LJ  26075.70032407  .00000000  00000+0  00000-0 0  9993
2 10108  45.0000 324.0000 0000000   0.0000 324.0000 15.48880433    14
CTC1_L_00245028-02
1 10109U 25629MD  26075.70032407  .00000000  00000+0  00000-0 0  9997
2 10109  45.0000 324.0000 0000000   0.0000  54.0000 15.48880433    15
CTC1_L_00245028-03
1 10110U 23799PH  26075.70032407  .00000000  00000+0  00000-0 0  9995
2 10110  45.0000 324.0000 0000000   0.0000 144.0000 15.48880433    17
CTC1_L_00245028-04
1 10111U 24495LK  26075.70032407  .00000000  00000+0  00000-0 0  9990
2 10111  45.0000 324.0000 0000000   0.0000 234.0000 15.48880433    18
CTC1_L_00245029-01
1 10112U 26580HD  26075.70032407  .00000000  00000+0  00000-0 0  9998
2 10112  45.0000 336.0000 0000000   0.0000 336.0000 15.48880433    15
CTC1_L_00245029-02
1 10113U 22398RH  26075.70032407  .00000000  00000+0  00000-0 0  9992
2 10113  45.0000 336.0000 0000000   0.0000  66.0000 15.48880433    16
CTC1_L_00245029-03
1 10114U 22129DI  26075.70032407  .00000000  00000+0  00000-0 0  9995
2 10114  45.0000 336.0000 0000000   0.0000 156.0000 15.48880433    17
CTC1_L_00245029-04
1 10115U 25663EB  26075.70032407  .00000000  00000+0  00000-0 0  9992
2 10115  45.0000 336.0000 0000000   0.0000 246.0000 15.48880433    18
CTC1_L_00245030-01
1 10116U 24701WG  26075.70032407  .00000000  00000+0  00000-0 0  9995
2 10116  45.0000 348.0000 0000000   0.0000 348.0000 15.48880433    15
CTC1_L_00245030-02
1 10117U 23454MT  26075.70032407  .00000000  00000+0  00000-0 0  9990
2 10117  45.0000 348.0000 0000000   0.0000  78.0000 15.48880433    16
CTC1_L_00245030-03
1 10118U 24583WW  26075.70032407  .00000000  00000+0  00000-0 0  9995
2 10118  45.0000 348.0000 0000000   0.0000 168.0000 15.48880433    17
CTC1_L_00245030-04
1 10119U 22275JF  26075.70032407  .00000000  00000+0  00000-0 0  9992
2 10119  45.0000 348.0000 0000000   0.0000 258.0000 15.48880433    18
